ONEWEB-0240             
1 48785U 21045U   24064.91012651  .00000239  00000+0  60037-3 0  9997
2 48785  87.8950  65.2115 0001595  75.8319 284.2989 13.15550612134711
ONEWEB-0246             
1 48786U 21045V   24064.90458141  .00000208  00000+0  51917-3 0  9998
2 48786  87.8950  65.2155 0002061  84.4651 275.6715 13.15547206134581
ONEWEB-0210             
1 48787U 21045W   24064.95528900 -.00000044  00000+0 -15106-3 0  9995
2 48787  87.8948  65.2117 0002466  75.8951 284.2453 13.15547343134636
ONEWEB-0214             
1 48788U 21045X   24064.96478807  .00000002  00000+0 -30029-4 0  9992
2 48788  87.8949  65.1986 0002511  78.1951 281.9461 13.15550087134607
ONEWEB-0221             
1 48789U 21045Y   24064.89507554 -.00000807  00000+0 -21783-2 0  9996
2 48789  87.8951  65.2275 0002136  73.4667 286.6698 13.15551615134688
ONEWEB-0213             
1 48790U 21045Z   24064.96004829 -.00000023  00000+0 -94707-4 0  9991
2 48790  87.8950  65.2300 0001910  74.9302 285.2039 13.15547879134758
ONEWEB-0212             
1 48791U 21045AA  24064.93706376 -.00000011  00000+0 -62580-4 0  9996
2 48791  87.8952  65.2151 0001848  90.0915 270.0427 13.15550267134741
ONEWEB-0227             
1 48792U 21045AB  24064.93626521  .00000031  00000+0  49211-4 0  9996
2 48792  87.8953  65.2321 0001798  84.5292 275.6043 13.15550352134696
